[{"CCSDS_OMM_VERS":"2.0","COMMENT":"GENERATED VIA SPACE-TRACK.ORG API","CREATION_DATE":"2020-04-17T02:29:48","ORIGINATOR":"18 SPCS","OBJECT_NAME":"ONEWEB-0027","OBJECT_ID":"2020-020J","CENTER_NAME":"EARTH","REF_FRAME":"TEME","TIME_SYSTEM":"UTC","MEAN_ELEMENT_THEORY":"SGP4","EPOCH":"2020-04-16T22:00:00.999936","MEAN_MOTION":"15.37633303","ECCENTRICITY":"0.00254420","INCLINATION":"87.3967","RA_OF_ASC_NODE":"129.6114","ARG_OF_PERICENTER":"200.7739","MEAN_ANOMALY":"59.6185","EPHEMERIS_TYPE":"0","CLASSIFICATION_TYPE":"U","NORAD_CAT_ID":"45432","ELEMENT_SET_NO":"999","REV_AT_EPOCH":"187","BSTAR":"0.00181200000000","MEAN_MOTION_DOT":"0.00068120","MEAN_MOTION_DDOT":"0.0000000000000","SEMIMAJOR_AXIS":"6831.247","PERIOD":"93.650","APOAPSIS":"470.492","PERIAPSIS":"435.731","OBJECT_TYPE":"PAYLOAD","RCS_SIZE":"MEDIUM","COUNTRY_CODE":"UK","LAUNCH_DATE":"2020-03-21","SITE":"TTMTR","DECAY_DATE":null,"FILE":"2735193","GP_ID":"152325200","TLE_LINE0":"0 ONEWEB-0027","TLE_LINE1":"1 45432U 20020J   20107.91667824 +.00068120 +00000-0 +18120-2 0  9996","TLE_LINE2":"2 45432 087.3967 129.6114 0025442 200.7739 059.6185 15.37633303001873"},{"CCSDS_OMM_VERS":"2.0","COMMENT":"GENERATED VIA SPACE-TRACK.ORG API","CREATION_DATE":"2020-04-17T19:44:48","ORIGINATOR":"18 SPCS","OBJECT_NAME":"ONEWEB-0027","OBJECT_ID":"2020-020J","CENTER_NAME":"EARTH","REF_FRAME":"TEME","TIME_SYSTEM":"UTC","MEAN_ELEMENT_THEORY":"SGP4","EPOCH":"2020-04-17T14:00:01.000224","MEAN_MOTION":"15.37683274","ECCENTRICITY":"0.00254510","INCLINATION":"87.3966","RA_OF_ASC_NODE":"129.3732","ARG_OF_PERICENTER":"198.2194","MEAN_ANOMALY":"149.9700","EPHEMERIS_TYPE":"0","CLASSIFICATION_TYPE":"U","NORAD_CAT_ID":"45432","ELEMENT_SET_NO":"999","REV_AT_EPOCH":"146","BSTAR":"-0.00025709000000","MEAN_MOTION_DOT":"-0.00009534","MEAN_MOTION_DDOT":"0.0000000000000","SEMIMAJOR_AXIS":"6831.099","PERIOD":"93.647","APOAPSIS":"470.349","PERIAPSIS":"435.578","OBJECT_TYPE":"PAYLOAD","RCS_SIZE":"MEDIUM","COUNTRY_CODE":"UK","LAUNCH_DATE":"2020-03-21","SITE":"TTMTR","DECAY_DATE":null,"FILE":"2735499","GP_ID":"152352272","TLE_LINE0":"0 ONEWEB-0027","TLE_LINE1":"1 45432U 20020J   20108.58334491 -.00009534 +00000-0 -25709-3 0  9999","TLE_LINE2":"2 45432 087.3966 129.3732 0025451 198.2194 149.9700 15.37683274001464"},{"CCSDS_OMM_VERS":"2.0","COMMENT":"GENERATED VIA SPACE-TRACK.ORG API","CREATION_DATE":"2020-04-18T01:14:18","ORIGINATOR":"18 SPCS","OBJECT_NAME":"ONEWEB-0027","OBJECT_ID":"2020-020J","CENTER_NAME":"EARTH","REF_FRAME":"TEME","TIME_SYSTEM":"UTC","MEAN_ELEMENT_THEORY":"SGP4","EPOCH":"2020-04-17T18:00:00.999648","MEAN_MOTION":"15.37688944","ECCENTRICITY":"0.00254850","INCLINATION":"87.3966","RA_OF_ASC_NODE":"129.3150","ARG_OF_PERICENTER":"197.4211","MEAN_ANOMALY":"352.7254","EPHEMERIS_TYPE":"0","CLASSIFICATION_TYPE":"U","NORAD_CAT_ID":"45432","ELEMENT_SET_NO":"999","REV_AT_EPOCH":"413","BSTAR":"-0.00113900000000","MEAN_MOTION_DOT":"-0.00042237","MEAN_MOTION_DDOT":"0.0000000000000","SEMIMAJOR_AXIS":"6831.082","PERIOD":"93.647","APOAPSIS":"470.356","PERIAPSIS":"435.538","OBJECT_TYPE":"PAYLOAD","RCS_SIZE":"MEDIUM","COUNTRY_CODE":"UK","LAUNCH_DATE":"2020-03-21","SITE":"TTMTR","DECAY_DATE":null,"FILE":"2735624","GP_ID":"152374867","TLE_LINE0":"0 ONEWEB-0027","TLE_LINE1":"1 45432U 20020J   20108.75001157 -.00042237 +00000-0 -11390-2 0  9995","TLE_LINE2":"2 45432 087.3966 129.3150 0025485 197.4211 352.7254 15.37688944004130"},{"CCSDS_OMM_VERS":"2.0","COMMENT":"GENERATED VIA SPACE-TRACK.ORG API","CREATION_DATE":"2020-04-18T06:56:09","ORIGINATOR":"18 SPCS","OBJECT_NAME":"ONEWEB-0027","OBJECT_ID":"2020-020J","CENTER_NAME":"EARTH","REF_FRAME":"TEME","TIME_SYSTEM":"UTC","MEAN_ELEMENT_THEORY":"SGP4","EPOCH":"2020-04-18T04:00:00.999936","MEAN_MOTION":"15.37703546","ECCENTRICITY":"0.00256050","INCLINATION":"87.3963","RA_OF_ASC_NODE":"129.1665","ARG_OF_PERICENTER":"196.0551","MEAN_ANOMALY":"138.9746","EPHEMERIS_TYPE":"0","CLASSIFICATION_TYPE":"U","NORAD_CAT_ID":"45432","ELEMENT_SET_NO":"999","REV_AT_EPOCH":"419","BSTAR":"-0.00153700000000","MEAN_MOTION_DOT":"-0.00056941","MEAN_MOTION_DDOT":"0.0000000000000","SEMIMAJOR_AXIS":"6831.038","PERIOD":"93.646","APOAPSIS":"470.394","PERIAPSIS":"435.413","OBJECT_TYPE":"PAYLOAD","RCS_SIZE":"MEDIUM","COUNTRY_CODE":"UK","LAUNCH_DATE":"2020-03-21","SITE":"TTMTR","DECAY_DATE":null,"FILE":"2735708","GP_ID":"152376629","TLE_LINE0":"0 ONEWEB-0027","TLE_LINE1":"1 45432U 20020J   20109.16667824 -.00056941  00000-0 -15370-2 0  9999","TLE_LINE2":"2 45432  87.3963 129.1665 0025605 196.0551 138.9746 15.37703546  4194"},{"CCSDS_OMM_VERS":"2.0","COMMENT":"GENERATED VIA SPACE-TRACK.ORG API","CREATION_DATE":"2020-04-18T15:16:08","ORIGINATOR":"18 SPCS","OBJECT_NAME":"ONEWEB-0027","OBJECT_ID":"2020-020J","CENTER_NAME":"EARTH","REF_FRAME":"TEME","TIME_SYSTEM":"UTC","MEAN_ELEMENT_THEORY":"SGP4","EPOCH":"2020-04-18T12:00:00.999648","MEAN_MOTION":"15.37656262","ECCENTRICITY":"0.00255850","INCLINATION":"87.3962","RA_OF_ASC_NODE":"129.0473","ARG_OF_PERICENTER":"194.6433","MEAN_ANOMALY":"184.3143","EPHEMERIS_TYPE":"0","CLASSIFICATION_TYPE":"U","NORAD_CAT_ID":"45432","ELEMENT_SET_NO":"999","REV_AT_EPOCH":"425","BSTAR":"0.00123650000000","MEAN_MOTION_DOT":"0.00046414","MEAN_MOTION_DDOT":"0.0000000000000","SEMIMAJOR_AXIS":"6831.179","PERIOD":"93.649","APOAPSIS":"470.521","PERIAPSIS":"435.566","OBJECT_TYPE":"PAYLOAD","RCS_SIZE":"MEDIUM","COUNTRY_CODE":"UK","LAUNCH_DATE":"2020-03-21","SITE":"TTMTR","DECAY_DATE":null,"FILE":"2735966","GP_ID":"152382766","TLE_LINE0":"0 ONEWEB-0027","TLE_LINE1":"1 45432U 20020J   20109.50001157  .00046414  00000-0  12365-2 0  9991","TLE_LINE2":"2 45432  87.3962 129.0473 0025585 194.6433 184.3143 15.37656262  4254"},{"CCSDS_OMM_VERS":"2.0","COMMENT":"GENERATED VIA SPACE-TRACK.ORG API","CREATION_DATE":"2020-04-18T16:59:46","ORIGINATOR":"18 SPCS","OBJECT_NAME":"ONEWEB-0027","OBJECT_ID":"2020-020J","CENTER_NAME":"EARTH","REF_FRAME":"TEME","TIME_SYSTEM":"UTC","MEAN_ELEMENT_THEORY":"SGP4","EPOCH":"2020-04-18T14:00:01.000224","MEAN_MOTION":"15.37692414","ECCENTRICITY":"0.00255840","INCLINATION":"87.3961","RA_OF_ASC_NODE":"129.0180","ARG_OF_PERICENTER":"194.1637","MEAN_ANOMALY":"285.7615","EPHEMERIS_TYPE":"0","CLASSIFICATION_TYPE":"U","NORAD_CAT_ID":"45432","ELEMENT_SET_NO":"999","REV_AT_EPOCH":"162","BSTAR":"-0.00066692000000","MEAN_MOTION_DOT":"-0.00024770","MEAN_MOTION_DDOT":"0.0000000000000","SEMIMAJOR_AXIS":"6831.071","PERIOD":"93.646","APOAPSIS":"470.413","PERIAPSIS":"435.460","OBJECT_TYPE":"PAYLOAD","RCS_SIZE":"MEDIUM","COUNTRY_CODE":"UK","LAUNCH_DATE":"2020-03-21","SITE":"TTMTR","DECAY_DATE":null,"FILE":"2735994","GP_ID":"152403593","TLE_LINE0":"0 ONEWEB-0027","TLE_LINE1":"1 45432U 20020J   20109.58334491 -.00024770 +00000-0 -66692-3 0  9995","TLE_LINE2":"2 45432 087.3961 129.0180 0025584 194.1637 285.7615 15.37692414001625"},{"CCSDS_OMM_VERS":"2.0","COMMENT":"GENERATED VIA SPACE-TRACK.ORG API","CREATION_DATE":"2020-04-18T22:36:09","ORIGINATOR":"18 SPCS","OBJECT_NAME":"ONEWEB-0027","OBJECT_ID":"2020-020J","CENTER_NAME":"EARTH","REF_FRAME":"TEME","TIME_SYSTEM":"UTC","MEAN_ELEMENT_THEORY":"SGP4","EPOCH":"2020-04-18T22:00:00.999936","MEAN_MOTION":"15.37633058","ECCENTRICITY":"0.00257710","INCLINATION":"87.3959","RA_OF_ASC_NODE":"128.9007","ARG_OF_PERICENTER":"192.7667","MEAN_ANOMALY":"331.0925","EPHEMERIS_TYPE":"0","CLASSIFICATION_TYPE":"U","NORAD_CAT_ID":"45432","ELEMENT_SET_NO":"999","REV_AT_EPOCH":"431","BSTAR":"0.00215290000000","MEAN_MOTION_DOT":"0.00081080","MEAN_MOTION_DDOT":"0.0000000000000","SEMIMAJOR_AXIS":"6831.247","PERIOD":"93.650","APOAPSIS":"470.717","PERIAPSIS":"435.507","OBJECT_TYPE":"PAYLOAD","RCS_SIZE":"MEDIUM","COUNTRY_CODE":"UK","LAUNCH_DATE":"2020-03-21","SITE":"TTMTR","DECAY_DATE":null,"FILE":"2736040","GP_ID":"152404749","TLE_LINE0":"0 ONEWEB-0027","TLE_LINE1":"1 45432U 20020J   20109.91667824  .00081080  00000-0  21529-2 0  9995","TLE_LINE2":"2 45432  87.3959 128.9007 0025771 192.7667 331.0925 15.37633058  4310"},{"CCSDS_OMM_VERS":"2.0","COMMENT":"GENERATED VIA SPACE-TRACK.ORG API","CREATION_DATE":"2020-04-19T17:08:39","ORIGINATOR":"18 SPCS","OBJECT_NAME":"ONEWEB-0027","OBJECT_ID":"2020-020J","CENTER_NAME":"EARTH","REF_FRAME":"TEME","TIME_SYSTEM":"UTC","MEAN_ELEMENT_THEORY":"SGP4","EPOCH":"2020-04-19T04:00:00.999936","MEAN_MOTION":"15.37708681","ECCENTRICITY":"0.00258190","INCLINATION":"87.3958","RA_OF_ASC_NODE":"128.8111","ARG_OF_PERICENTER":"192.0598","MEAN_ANOMALY":"274.7125","EPHEMERIS_TYPE":"0","CLASSIFICATION_TYPE":"U","NORAD_CAT_ID":"45432","ELEMENT_SET_NO":"999","REV_AT_EPOCH":"171","BSTAR":"-0.00162490000000","MEAN_MOTION_DOT":"-0.00060198","MEAN_MOTION_DDOT":"0.0000000000000","SEMIMAJOR_AXIS":"6831.023","PERIOD":"93.645","APOAPSIS":"470.525","PERIAPSIS":"435.251","OBJECT_TYPE":"PAYLOAD","RCS_SIZE":"MEDIUM","COUNTRY_CODE":"UK","LAUNCH_DATE":"2020-03-21","SITE":"TTMTR","DECAY_DATE":null,"FILE":"2736498","GP_ID":"152455545","TLE_LINE0":"0 ONEWEB-0027","TLE_LINE1":"1 45432U 20020J   20110.16667824 -.00060198 +00000-0 -16249-2 0  9996","TLE_LINE2":"2 45432 087.3958 128.8111 0025819 192.0598 274.7125 15.37708681001714"}]